DELTA 1 R/B             
1 20323U 89089B   25306.49262833  .00000421  00000+0  11301-3 0  9992
2 20323  97.0796 169.1015 0069582 163.3426 197.0080 14.50520734877297
ARIANE 40 R/B           
1 20443U 90005H   25306.43173833  .00000387  00000+0  13696-3 0  9990
2 20443  98.3300   5.7383 0009359 222.4355 137.6111 14.39750237874496
DELTA 2 R/B(1)          
1 20453U 90008B   25306.25494110  .00032637  00000+0  58363-3 0  9991
2 20453  35.6070 281.2216 0118384 170.5874 189.7110 15.41505182906370
COSMOS 2058             
1 20465U 90010A   25306.47370760  .00003451  00000+0  21031-3 0  9999
2 20465  82.4690 172.6376 0011530  52.5149 307.7127 15.10017344923036
SL-14 R/B               
1 20466U 90010B   25306.20662154  .00000574  00000+0  66842-4 0  9995
2 20466  82.5053  27.1068 0019882   4.5220 355.6170 14.83414494909588
SL-14 R/B               
1 20511U 90018B   25306.37189419  .00000521  00000+0  62544-4 0  9997
2 20511  82.5218 342.0989 0017281 146.7729 213.4574 14.81989204903720
HST                     
1 20580U 90037B   25306.35384425  .00007204  00000+0  25387-3 0  9994
2 20580  28.4668 187.2184 0001915 134.9270 225.1481 15.27276544753814
SL-16 R/B               
1 20625U 90046B   25306.16825265 -.00000047  00000+0  43402-6 0  9995
2 20625  70.9996 205.7234 0012636 146.2798 213.9131 14.14992447830359
COSMOS 2084             
1 20663U 90055A   25306.49845293  .00003736  00000+0  27456-3 0  9991
2 20663  62.7915  49.0713 0038462 169.9384 190.2495 15.04646525917179
SL-6 R/B(2)             
1 20666U 90055D   25306.44737017  .00002555  00000+0  20450-3 0  9998
2 20666  62.7840 326.2930 0010656 272.3881  87.5997 15.02773438919063
SL-8 R/B                
1 20775U 90078B   25306.23005474  .00014495  00000+0  44742-3 0  9992
2 20775  82.9088   5.4951 0383057  81.2469 283.1922 14.83846715790367
SL-8 R/B                
1 21088U 91006B   25306.37610465  .00000138  00000+0  12352-3 0  9990
2 21088  82.9399 264.7389 0023402  34.8459  83.2411 13.77480873746547
