CCSDS_OMM_VERS = 2.0
CREATION_DATE  = 
ORIGINATOR     = 

OBJECT_NAME    = DELTA 1 R/B
OBJECT_ID      = 1989-089B
CENTER_NAME    = EARTH
REF_FRAME      = TEME
TIME_SYSTEM    = UTC
MEAN_ELEMENT_THEORY = SGP/SGP4

EPOCH          = 2025-11-02T11:49:23.087712
MEAN_MOTION    = 14.50520734
ECCENTRICITY   = .0069582
INCLINATION    = 97.0796
RA_OF_ASC_NODE = 169.1015
ARG_OF_PERICENTER = 163.3426
MEAN_ANOMALY   = 197.0080

EPHEMERIS_TYPE = 0
CLASSIFICATION_TYPE = U
NORAD_CAT_ID   = 20323
ELEMENT_SET_NO = 999
REV_AT_EPOCH   = 87729
BSTAR          = .11301E-3
MEAN_MOTION_DOT = .421E-5
MEAN_MOTION_DDOT = 0

CCSDS_OMM_VERS = 2.0
CREATION_DATE  = 
ORIGINATOR     = 

OBJECT_NAME    = ARIANE 40 R/B
OBJECT_ID      = 1990-005H
CENTER_NAME    = EARTH
REF_FRAME      = TEME
TIME_SYSTEM    = UTC
MEAN_ELEMENT_THEORY = SGP/SGP4

EPOCH          = 2025-11-02T10:21:42.191712
MEAN_MOTION    = 14.39750237
ECCENTRICITY   = .0009359
INCLINATION    = 98.3300
RA_OF_ASC_NODE = 5.7383
ARG_OF_PERICENTER = 222.4355
MEAN_ANOMALY   = 137.6111

EPHEMERIS_TYPE = 0
CLASSIFICATION_TYPE = U
NORAD_CAT_ID   = 20443
ELEMENT_SET_NO = 999
REV_AT_EPOCH   = 87449
BSTAR          = .13696E-3
MEAN_MOTION_DOT = .387E-5
MEAN_MOTION_DDOT = 0

CCSDS_OMM_VERS = 2.0
CREATION_DATE  = 
ORIGINATOR     = 

OBJECT_NAME    = DELTA 2 R/B(1)
OBJECT_ID      = 1990-008B
CENTER_NAME    = EARTH
REF_FRAME      = TEME
TIME_SYSTEM    = UTC
MEAN_ELEMENT_THEORY = SGP/SGP4

EPOCH          = 2025-11-02T06:07:06.911040
MEAN_MOTION    = 15.41505182
ECCENTRICITY   = .01183842
INCLINATION    = 35.6070
RA_OF_ASC_NODE = 281.2216
ARG_OF_PERICENTER = 170.5874
MEAN_ANOMALY   = 189.7110

EPHEMERIS_TYPE = 0
CLASSIFICATION_TYPE = U
NORAD_CAT_ID   = 20453
ELEMENT_SET_NO = 999
REV_AT_EPOCH   = 90637
BSTAR          = .58363283E-3
MEAN_MOTION_DOT = .32637E-3
MEAN_MOTION_DDOT = 0

CCSDS_OMM_VERS = 2.0
CREATION_DATE  = 
ORIGINATOR     = 

OBJECT_NAME    = COSMOS 2058
OBJECT_ID      = 1990-010A
CENTER_NAME    = EARTH
REF_FRAME      = TEME
TIME_SYSTEM    = UTC
MEAN_ELEMENT_THEORY = SGP/SGP4

EPOCH          = 2025-11-02T11:22:08.336640
MEAN_MOTION    = 15.10017344
ECCENTRICITY   = .001153
INCLINATION    = 82.4690
RA_OF_ASC_NODE = 172.6376
ARG_OF_PERICENTER = 52.5149
MEAN_ANOMALY   = 307.7127

EPHEMERIS_TYPE = 0
CLASSIFICATION_TYPE = U
NORAD_CAT_ID   = 20465
ELEMENT_SET_NO = 999
REV_AT_EPOCH   = 92303
BSTAR          = .21031E-3
MEAN_MOTION_DOT = .3451E-4
MEAN_MOTION_DDOT = 0

CCSDS_OMM_VERS = 2.0
CREATION_DATE  = 
ORIGINATOR     = 

OBJECT_NAME    = SL-14 R/B
OBJECT_ID      = 1990-010B
CENTER_NAME    = EARTH
REF_FRAME      = TEME
TIME_SYSTEM    = UTC
MEAN_ELEMENT_THEORY = SGP/SGP4

EPOCH          = 2025-11-02T04:57:32.101056
MEAN_MOTION    = 14.83414494
ECCENTRICITY   = .00198829
INCLINATION    = 82.5053
RA_OF_ASC_NODE = 27.1068
ARG_OF_PERICENTER = 4.5220
MEAN_ANOMALY   = 355.6170

EPHEMERIS_TYPE = 0
CLASSIFICATION_TYPE = U
NORAD_CAT_ID   = 20466
ELEMENT_SET_NO = 999
REV_AT_EPOCH   = 90958
BSTAR          = .66841851E-4
MEAN_MOTION_DOT = .574E-5
MEAN_MOTION_DDOT = 0

CCSDS_OMM_VERS = 2.0
CREATION_DATE  = 
ORIGINATOR     = 

OBJECT_NAME    = SL-14 R/B
OBJECT_ID      = 1990-018B
CENTER_NAME    = EARTH
REF_FRAME      = TEME
TIME_SYSTEM    = UTC
MEAN_ELEMENT_THEORY = SGP/SGP4

EPOCH          = 2025-11-02T08:55:31.658016
MEAN_MOTION    = 14.81989204
ECCENTRICITY   = .0017281
INCLINATION    = 82.5218
RA_OF_ASC_NODE = 342.0989
ARG_OF_PERICENTER = 146.7729
MEAN_ANOMALY   = 213.4574

EPHEMERIS_TYPE = 0
CLASSIFICATION_TYPE = U
NORAD_CAT_ID   = 20511
ELEMENT_SET_NO = 999
REV_AT_EPOCH   = 90372
BSTAR          = .62544E-4
MEAN_MOTION_DOT = .521E-5
MEAN_MOTION_DDOT = 0

CCSDS_OMM_VERS = 2.0
CREATION_DATE  = 
ORIGINATOR     = 

OBJECT_NAME    = HST
OBJECT_ID      = 1990-037B
CENTER_NAME    = EARTH
REF_FRAME      = TEME
TIME_SYSTEM    = UTC
MEAN_ELEMENT_THEORY = SGP/SGP4

EPOCH          = 2025-11-02T08:29:32.143200
MEAN_MOTION    = 15.27276544
ECCENTRICITY   = .0001915
INCLINATION    = 28.4668
RA_OF_ASC_NODE = 187.2184
ARG_OF_PERICENTER = 134.9270
MEAN_ANOMALY   = 225.1481

EPHEMERIS_TYPE = 0
CLASSIFICATION_TYPE = U
NORAD_CAT_ID   = 20580
ELEMENT_SET_NO = 999
REV_AT_EPOCH   = 75381
BSTAR          = .25387E-3
MEAN_MOTION_DOT = .7204E-4
MEAN_MOTION_DDOT = 0

CCSDS_OMM_VERS = 2.0
CREATION_DATE  = 
ORIGINATOR     = 

OBJECT_NAME    = SL-16 R/B
OBJECT_ID      = 1990-046B
CENTER_NAME    = EARTH
REF_FRAME      = TEME
TIME_SYSTEM    = UTC
MEAN_ELEMENT_THEORY = SGP/SGP4

EPOCH          = 2025-11-02T04:02:17.028960
MEAN_MOTION    = 14.14992447
ECCENTRICITY   = .00126363
INCLINATION    = 70.9996
RA_OF_ASC_NODE = 205.7234
ARG_OF_PERICENTER = 146.2798
MEAN_ANOMALY   = 213.9131

EPHEMERIS_TYPE = 0
CLASSIFICATION_TYPE = U
NORAD_CAT_ID   = 20625
ELEMENT_SET_NO = 999
REV_AT_EPOCH   = 83035
BSTAR          = .434021E-6
MEAN_MOTION_DOT = -.47E-6
MEAN_MOTION_DDOT = 0

CCSDS_OMM_VERS = 2.0
CREATION_DATE  = 
ORIGINATOR     = 

OBJECT_NAME    = COSMOS 2084
OBJECT_ID      = 1990-055A
CENTER_NAME    = EARTH
REF_FRAME      = TEME
TIME_SYSTEM    = UTC
MEAN_ELEMENT_THEORY = SGP/SGP4

EPOCH          = 2025-11-02T11:57:46.333152
MEAN_MOTION    = 15.04646525
ECCENTRICITY   = .0038462
INCLINATION    = 62.7915
RA_OF_ASC_NODE = 49.0713
ARG_OF_PERICENTER = 169.9384
MEAN_ANOMALY   = 190.2495

EPHEMERIS_TYPE = 0
CLASSIFICATION_TYPE = U
NORAD_CAT_ID   = 20663
ELEMENT_SET_NO = 999
REV_AT_EPOCH   = 91717
BSTAR          = .27456E-3
MEAN_MOTION_DOT = .3736E-4
MEAN_MOTION_DDOT = 0

CCSDS_OMM_VERS = 2.0
CREATION_DATE  = 
ORIGINATOR     = 

OBJECT_NAME    = SL-6 R/B(2)
OBJECT_ID      = 1990-055D
CENTER_NAME    = EARTH
REF_FRAME      = TEME
TIME_SYSTEM    = UTC
MEAN_ELEMENT_THEORY = SGP/SGP4

EPOCH          = 2025-11-02T10:44:12.782688
MEAN_MOTION    = 15.02773438
ECCENTRICITY   = .0010656
INCLINATION    = 62.7840
RA_OF_ASC_NODE = 326.2930
ARG_OF_PERICENTER = 272.3881
MEAN_ANOMALY   = 87.5997

EPHEMERIS_TYPE = 0
CLASSIFICATION_TYPE = U
NORAD_CAT_ID   = 20666
ELEMENT_SET_NO = 999
REV_AT_EPOCH   = 91906
BSTAR          = .2045E-3
MEAN_MOTION_DOT = .2555E-4
MEAN_MOTION_DDOT = 0

CCSDS_OMM_VERS = 2.0
CREATION_DATE  = 
ORIGINATOR     = 

OBJECT_NAME    = SL-8 R/B
OBJECT_ID      = 1990-078B
CENTER_NAME    = EARTH
REF_FRAME      = TEME
TIME_SYSTEM    = UTC
MEAN_ELEMENT_THEORY = SGP/SGP4

EPOCH          = 2025-11-02T05:31:16.729536
MEAN_MOTION    = 14.83846715
ECCENTRICITY   = .03830574
INCLINATION    = 82.9088
RA_OF_ASC_NODE = 5.4951
ARG_OF_PERICENTER = 81.2469
MEAN_ANOMALY   = 283.1922

EPHEMERIS_TYPE = 0
CLASSIFICATION_TYPE = U
NORAD_CAT_ID   = 20775
ELEMENT_SET_NO = 999
REV_AT_EPOCH   = 79036
BSTAR          = .44741818E-3
MEAN_MOTION_DOT = .14495E-3
MEAN_MOTION_DDOT = 0

CCSDS_OMM_VERS = 2.0
CREATION_DATE  = 
ORIGINATOR     = 

OBJECT_NAME    = SL-8 R/B
OBJECT_ID      = 1991-006B
CENTER_NAME    = EARTH
REF_FRAME      = TEME
TIME_SYSTEM    = UTC
MEAN_ELEMENT_THEORY = SGP/SGP4

EPOCH          = 2025-11-02T09:01:35.441760
MEAN_MOTION    = 13.77480873
ECCENTRICITY   = .0023402
INCLINATION    = 82.9399
RA_OF_ASC_NODE = 264.7389
ARG_OF_PERICENTER = 34.8459
MEAN_ANOMALY   = 83.2411

EPHEMERIS_TYPE = 0
CLASSIFICATION_TYPE = U
NORAD_CAT_ID   = 21088
ELEMENT_SET_NO = 999
REV_AT_EPOCH   = 74654
BSTAR          = .12352E-3
MEAN_MOTION_DOT = .138E-5
MEAN_MOTION_DDOT = 0

